ONEWEB-0676             
1 56712U 23068C   26043.11783419  .00000082  00000+0  18053-3 0  9998
2 56712  87.9000 253.6709 0001438  81.4518 278.6776 13.16593697135240
ONEWEB-0677             
1 56713U 23068D   26043.18801709  .00000048  00000+0  87348-4 0  9995
2 56713  87.9213 299.3849 0001794  73.7438 286.3892 13.20770568133308
ONEWEB-0678             
1 56714U 23068E   26043.19779464  .00000124  00000+0  29609-3 0  9999
2 56714  87.8987 284.1416 0001243  86.6682 273.4590 13.15549538132857
ONEWEB-0679             
1 56715U 23068F   26043.07668586  .00000016  00000+0  76039-5 0  9990
2 56715  87.9010 253.6624 0001979  76.8378 283.2974 13.16594871135261
ONEWEB-0680             
1 56716U 23068G   26043.12193144  .00000071  00000+0  14128-3 0  9990
2 56716  87.9192 268.9098 0002134  81.6501 278.4875 13.21827193134574
ONEWEB-0681             
1 56717U 23068H   26043.17703046  .00000039  00000+0  61865-4 0  9999
2 56717  87.9187 268.9095 0001449  47.3473 312.7783 13.21827407134579
ONEWEB-0682             
1 56718U 23068J   26043.22393533 -.00000034  00000+0 -12350-3 0  9993
2 56718  87.8973 284.1454 0002044  76.6569 283.4790 13.15549389133028
ONEWEB-0683             
1 56719U 23068K   26043.16927447  .00000042  00000+0  78670-4 0  9999
2 56719  87.8987 284.1465 0001803  81.4761 278.6573 13.15549819132983
ONEWEB-0684             
1 56720U 23068L   26043.17719522  .00000050  00000+0  99284-4 0  9998
2 56720  87.8982 284.1380 0001322 138.7843 221.3387 13.15549635132815
ONEWEB-0686             
1 56721U 23068M   26043.11308967  .00000315  00000+0  79060-3 0  9993
2 56721  87.9003 253.6995 0001553  95.3055 264.8253 13.16573899135258
ONEWEB-0694             
1 56722U 23068N   26043.11942019  .00000129  00000+0  30382-3 0  9993
2 56722  87.9009 253.6378 0002001  90.2487 269.8873 13.16596007135318
ONEWEB-0696             
1 56723U 23068P   26043.21046362  .00000010  00000+0 -65281-5 0  9999
2 56723  87.8982 284.1797 0001066  88.4525 271.6728 13.15546946132935
ONEWEB-0703             
1 56724U 23068Q   26043.21997845 -.00000036  00000+0 -12941-3 0  9993
2 56724  87.8973 284.1587 0000552  61.9014 298.2172 13.15550123132829
ONEWEB-0721             
1 56725U 23068R   26043.22618840  .00000087  00000+0  17455-3 0  9999
2 56725  86.6804 125.4077 0001822 106.3703 253.7630 13.22459723141424
ONEWEB-0015             
1 61594U 24188A   26043.03016152 -.00000554  00000+0 -15984-2 0  9995
2 61594  87.8819  45.9950 0002030  71.5073 288.6276 13.11415610 68059
ONEWEB-0687             
1 61595U 24188B   26043.01203659  .00000122  00000+0  28091-3 0  9997
2 61595  87.9097  30.7528 0002379  81.4880 278.6521 13.17647519 69418
ONEWEB-0688             
1 61596U 24188C   26042.88885607  .00000005  00000+0 -21308-4 0  9997
2 61596  87.9095  30.7773 0002443  57.4478 302.6889 13.17648379 69394
