[{"OBJECT_NAME":"ONEWEB-0676","OBJECT_ID":"2023-068C","EPOCH":"2026-02-12T02:49:40.874016","MEAN_MOTION":13.16593697,"ECCENTRICITY":0.00014384,"INCLINATION":87.9,"RA_OF_ASC_NODE":253.6709,"ARG_OF_PERICENTER":81.4518,"MEAN_ANOMALY":278.6776,"EPHEMERIS_TYPE":0,"CLASSIFICATION_TYPE":"U","NORAD_CAT_ID":56712,"ELEMENT_SET_NO":999,"REV_AT_EPOCH":13524,"BSTAR":0.00018052956,"MEAN_MOTION_DOT":8.2e-7,"MEAN_MOTION_DDOT":0},{"OBJECT_NAME":"ONEWEB-0677","OBJECT_ID":"2023-068D","EPOCH":"2026-02-12T04:30:44.676576","MEAN_MOTION":13.20770568,"ECCENTRICITY":0.00017947,"INCLINATION":87.9213,"RA_OF_ASC_NODE":299.3849,"ARG_OF_PERICENTER":73.7438,"MEAN_ANOMALY":286.3892,"EPHEMERIS_TYPE":0,"CLASSIFICATION_TYPE":"U","NORAD_CAT_ID":56713,"ELEMENT_SET_NO":999,"REV_AT_EPOCH":13330,"BSTAR":8.7348017e-5,"MEAN_MOTION_DOT":4.8e-7,"MEAN_MOTION_DDOT":0},{"OBJECT_NAME":"ONEWEB-0678","OBJECT_ID":"2023-068E","EPOCH":"2026-02-12T04:44:49.456896","MEAN_MOTION":13.15549538,"ECCENTRICITY":0.00012438,"INCLINATION":87.8987,"RA_OF_ASC_NODE":284.1416,"ARG_OF_PERICENTER":86.6682,"MEAN_ANOMALY":273.459,"EPHEMERIS_TYPE":0,"CLASSIFICATION_TYPE":"U","NORAD_CAT_ID":56714,"ELEMENT_SET_NO":999,"REV_AT_EPOCH":13285,"BSTAR":0.00029608626,"MEAN_MOTION_DOT":1.24e-6,"MEAN_MOTION_DDOT":0},{"OBJECT_NAME":"ONEWEB-0679","OBJECT_ID":"2023-068F","EPOCH":"2026-02-12T01:50:25.658304","MEAN_MOTION":13.16594871,"ECCENTRICITY":0.00019797,"INCLINATION":87.901,"RA_OF_ASC_NODE":253.6624,"ARG_OF_PERICENTER":76.8378,"MEAN_ANOMALY":283.2974,"EPHEMERIS_TYPE":0,"CLASSIFICATION_TYPE":"U","NORAD_CAT_ID":56715,"ELEMENT_SET_NO":999,"REV_AT_EPOCH":13526,"BSTAR":7.603932e-6,"MEAN_MOTION_DOT":1.6e-7,"MEAN_MOTION_DDOT":0},{"OBJECT_NAME":"ONEWEB-0680","OBJECT_ID":"2023-068G","EPOCH":"2026-02-12T02:55:34.876416","MEAN_MOTION":13.21827193,"ECCENTRICITY":0.00021341,"INCLINATION":87.9192,"RA_OF_ASC_NODE":268.9098,"ARG_OF_PERICENTER":81.6501,"MEAN_ANOMALY":278.4875,"EPHEMERIS_TYPE":0,"CLASSIFICATION_TYPE":"U","NORAD_CAT_ID":56716,"ELEMENT_SET_NO":999,"REV_AT_EPOCH":13457,"BSTAR":0.00014128088,"MEAN_MOTION_DOT":7.1e-7,"MEAN_MOTION_DDOT":0},{"OBJECT_NAME":"ONEWEB-0681","OBJECT_ID":"2023-068H","EPOCH":"2026-02-12T04:14:55.431744","MEAN_MOTION":13.21827407,"ECCENTRICITY":0.00014491,"INCLINATION":87.9187,"RA_OF_ASC_NODE":268.9095,"ARG_OF_PERICENTER":47.3473,"MEAN_ANOMALY":312.7783,"EPHEMERIS_TYPE":0,"CLASSIFICATION_TYPE":"U","NORAD_CAT_ID":56717,"ELEMENT_SET_NO":999,"REV_AT_EPOCH":13457,"BSTAR":6.1865119e-5,"MEAN_MOTION_DOT":3.9e-7,"MEAN_MOTION_DDOT":0},{"OBJECT_NAME":"ONEWEB-0682","OBJECT_ID":"2023-068J","EPOCH":"2026-02-12T05:22:28.012512","MEAN_MOTION":13.15549389,"ECCENTRICITY":0.00020449,"INCLINATION":87.8973,"RA_OF_ASC_NODE":284.1454,"ARG_OF_PERICENTER":76.6569,"MEAN_ANOMALY":283.479,"EPHEMERIS_TYPE":0,"CLASSIFICATION_TYPE":"U","NORAD_CAT_ID":56718,"ELEMENT_SET_NO":999,"REV_AT_EPOCH":13302,"BSTAR":-0.00012349961,"MEAN_MOTION_DOT":-3.4e-7,"MEAN_MOTION_DDOT":0},{"OBJECT_NAME":"ONEWEB-0683","OBJECT_ID":"2023-068K","EPOCH":"2026-02-12T04:03:45.314208","MEAN_MOTION":13.15549819,"ECCENTRICITY":0.00018032,"INCLINATION":87.8987,"RA_OF_ASC_NODE":284.1465,"ARG_OF_PERICENTER":81.4761,"MEAN_ANOMALY":278.6573,"EPHEMERIS_TYPE":0,"CLASSIFICATION_TYPE":"U","NORAD_CAT_ID":56719,"ELEMENT_SET_NO":999,"REV_AT_EPOCH":13298,"BSTAR":7.8669697e-5,"MEAN_MOTION_DOT":4.2e-7,"MEAN_MOTION_DDOT":0},{"OBJECT_NAME":"ONEWEB-0684","OBJECT_ID":"2023-068L","EPOCH":"2026-02-12T04:15:09.667008","MEAN_MOTION":13.15549635,"ECCENTRICITY":0.00013223,"INCLINATION":87.8982,"RA_OF_ASC_NODE":284.138,"ARG_OF_PERICENTER":138.7843,"MEAN_ANOMALY":221.3387,"EPHEMERIS_TYPE":0,"CLASSIFICATION_TYPE":"U","NORAD_CAT_ID":56720,"ELEMENT_SET_NO":999,"REV_AT_EPOCH":13281,"BSTAR":9.928369e-5,"MEAN_MOTION_DOT":5.0e-7,"MEAN_MOTION_DDOT":0},{"OBJECT_NAME":"ONEWEB-0686","OBJECT_ID":"2023-068M","EPOCH":"2026-02-12T02:42:50.947488","MEAN_MOTION":13.16573899,"ECCENTRICITY":0.00015531,"INCLINATION":87.9003,"RA_OF_ASC_NODE":253.6995,"ARG_OF_PERICENTER":95.3055,"MEAN_ANOMALY":264.8253,"EPHEMERIS_TYPE":0,"CLASSIFICATION_TYPE":"U","NORAD_CAT_ID":56721,"ELEMENT_SET_NO":999,"REV_AT_EPOCH":13525,"BSTAR":0.00079059782,"MEAN_MOTION_DOT":3.15e-6,"MEAN_MOTION_DDOT":0},{"OBJECT_NAME":"ONEWEB-0694","OBJECT_ID":"2023-068N","EPOCH":"2026-02-12T02:51:57.904416","MEAN_MOTION":13.16596007,"ECCENTRICITY":0.00020011,"INCLINATION":87.9009,"RA_OF_ASC_NODE":253.6378,"ARG_OF_PERICENTER":90.2487,"MEAN_ANOMALY":269.8873,"EPHEMERIS_TYPE":0,"CLASSIFICATION_TYPE":"U","NORAD_CAT_ID":56722,"ELEMENT_SET_NO":999,"REV_AT_EPOCH":13531,"BSTAR":0.00030381812,"MEAN_MOTION_DOT":1.29e-6,"MEAN_MOTION_DDOT":0},{"OBJECT_NAME":"ONEWEB-0696","OBJECT_ID":"2023-068P","EPOCH":"2026-02-12T05:03:04.056768","MEAN_MOTION":13.15546946,"ECCENTRICITY":0.00010669,"INCLINATION":87.8982,"RA_OF_ASC_NODE":284.1797,"ARG_OF_PERICENTER":88.4525,"MEAN_ANOMALY":271.6728,"EPHEMERIS_TYPE":0,"CLASSIFICATION_TYPE":"U","NORAD_CAT_ID":56723,"ELEMENT_SET_NO":999,"REV_AT_EPOCH":13293,"BSTAR":-6.528064e-6,"MEAN_MOTION_DOT":1.0e-7,"MEAN_MOTION_DDOT":0},{"OBJECT_NAME":"ONEWEB-0703","OBJECT_ID":"2023-068Q","EPOCH":"2026-02-12T05:16:46.138080","MEAN_MOTION":13.15550123,"ECCENTRICITY":5.526e-5,"INCLINATION":87.8973,"RA_OF_ASC_NODE":284.1587,"ARG_OF_PERICENTER":61.9014,"MEAN_ANOMALY":298.2172,"EPHEMERIS_TYPE":0,"CLASSIFICATION_TYPE":"U","NORAD_CAT_ID":56724,"ELEMENT_SET_NO":999,"REV_AT_EPOCH":13282,"BSTAR":-0.00012940542,"MEAN_MOTION_DOT":-3.6e-7,"MEAN_MOTION_DDOT":0},{"OBJECT_NAME":"ONEWEB-0721","OBJECT_ID":"2023-068R","EPOCH":"2026-02-12T05:25:42.677760","MEAN_MOTION":13.22459723,"ECCENTRICITY":0.00018228,"INCLINATION":86.6804,"RA_OF_ASC_NODE":125.4077,"ARG_OF_PERICENTER":106.3703,"MEAN_ANOMALY":253.763,"EPHEMERIS_TYPE":0,"CLASSIFICATION_TYPE":"U","NORAD_CAT_ID":56725,"ELEMENT_SET_NO":999,"REV_AT_EPOCH":14142,"BSTAR":0.00017455164,"MEAN_MOTION_DOT":8.7e-7,"MEAN_MOTION_DDOT":0},{"OBJECT_NAME":"ONEWEB-0015","OBJECT_ID":"2024-188A","EPOCH":"2026-02-12T00:43:25.955328","MEAN_MOTION":13.1141561,"ECCENTRICITY":0.00020309,"INCLINATION":87.8819,"RA_OF_ASC_NODE":45.995,"ARG_OF_PERICENTER":71.5073,"MEAN_ANOMALY":288.6276,"EPHEMERIS_TYPE":0,"CLASSIFICATION_TYPE":"U","NORAD_CAT_ID":61594,"ELEMENT_SET_NO":999,"REV_AT_EPOCH":6805,"BSTAR":-0.0015983624,"MEAN_MOTION_DOT":-5.54e-6,"MEAN_MOTION_DDOT":0},{"OBJECT_NAME":"ONEWEB-0687","OBJECT_ID":"2024-188B","EPOCH":"2026-02-12T00:17:19.961376","MEAN_MOTION":13.17647519,"ECCENTRICITY":0.00023791,"INCLINATION":87.9097,"RA_OF_ASC_NODE":30.7528,"ARG_OF_PERICENTER":81.488,"MEAN_ANOMALY":278.6521,"EPHEMERIS_TYPE":0,"CLASSIFICATION_TYPE":"U","NORAD_CAT_ID":61595,"ELEMENT_SET_NO":999,"REV_AT_EPOCH":6941,"BSTAR":0.0002809119,"MEAN_MOTION_DOT":1.22e-6,"MEAN_MOTION_DDOT":0},{"OBJECT_NAME":"ONEWEB-0688","OBJECT_ID":"2024-188C","EPOCH":"2026-02-11T21:19:57.164448","MEAN_MOTION":13.17648379,"ECCENTRICITY":0.0002443,"INCLINATION":87.9095,"RA_OF_ASC_NODE":30.7773,"ARG_OF_PERICENTER":57.4478,"MEAN_ANOMALY":302.6889,"EPHEMERIS_TYPE":0,"CLASSIFICATION_TYPE":"U","NORAD_CAT_ID":61596,"ELEMENT_SET_NO":999,"REV_AT_EPOCH":6939,"BSTAR":-2.1308e-5,"MEAN_MOTION_DOT":5.0e-8,"MEAN_MOTION_DDOT":0}]
